HXMT (HUIYAN)           
1 42758U 17034A   26100.30251738  .00005641  00000+0  28160-3 0  9994
2 42758  43.0135 200.8622 0030338  73.8793 286.5392 15.17897017487345
SAOCOM 1A               
1 43641U 18076A   26100.28788670  .00000675  00000+0  91360-4 0  9995
2 43641  97.8908 288.0144 0001438  86.7616 273.3762 14.82145100406048
H-2A R/B                
1 43682U 18084L   26100.20438721  .00019585  00000+0  44563-3 0  9992
2 43682  98.8682 324.3560 0023112 273.5337  86.3263 15.42764030410632
SAOCOM 1B               
1 46265U 20059A   26100.25167668 -.00000213  00000+0 -20246-4 0  9994
2 46265  97.8895 287.0741 0001435  82.9946 277.1431 14.82154390303425
CSS (TIANHE)            
1 48274U 21035A   26100.18350541  .00027833  00000+0  30988-3 0  9995
2 48274  41.4683  16.3073 0004533 175.1456 184.9428 15.62208650282538
COSMOS 2550             
1 48865U 21056A   26100.14299956 -.00000181  00000+0  31571-6 0  9992
2 48865  67.1407 305.7383 0008399 269.3401  90.6791 15.33826857268287
CZ-2C R/B               
1 52794U 22058K   26100.24812948  .00035372  00000+0  47148-3 0  9997
2 52794  50.1865 155.6550 0040710 336.1428  23.7656 15.56738800215044
CZ-2C R/B               
1 54039U 22132E   26100.05557741  .00047105  00000+0  47718-3 0  9990
2 54039  97.2956 104.3968 0014540 342.1761  17.8987 15.65000434195272
GSLV R/B                
1 54149U 22138AN  26100.14074007  .00002125  00000+0  18139-3 0  9995
2 54149  87.3840 155.8296 0023036  43.0868 317.2162 14.96975242188631
XRISM                   
1 57800U 23137A   26100.26846497  .00005018  00000+0  28038-3 0  9998
2 57800  31.0020  79.3487 0007625 355.9807   4.0769 15.11883370142575
ACS3                    
1 59588U 24077B   26100.23439931  .00031776  00000+0  24635-1 0  9992
2 59588  97.1908  34.2595 0072935   7.8783 352.3510 13.91182729 98580
HTV-X1                  
1 66174U 25241A   26100.01671284  .00005103  00000+0  17113-3 0  9990
2 66174  51.6366 282.0284 0007350 294.6960  65.3256 15.32601237 25745
SZ-21 MODULE            
1 66515U 25246C   26100.11890061  .00036780  00000+0  28388-3 0  9992
2 66515  41.4751   9.5222 0004089 251.7695 108.2702 15.71176834 23012
